[{"OBJECT_NAME":"STARLINK-30280","OBJECT_ID":"2023-122M","EPOCH":"2026-03-09T22:00:01.999584","MEAN_MOTION":15.27564889,"ECCENTRICITY":0.00014545,"INCLINATION":43.0011,"RA_OF_ASC_NODE":91.038,"ARG_OF_PERICENTER":260.8212,"MEAN_ANOMALY":103.1201,"EPHEMERIS_TYPE":0,"CLASSIFICATION_TYPE":"U","NORAD_CAT_ID":57643,"ELEMENT_SET_NO":999,"REV_AT_EPOCH":578,"BSTAR":0.0014082321,"MEAN_MOTION_DOT":0.00038675,"MEAN_MOTION_DDOT":0},{"OBJECT_NAME":"OBJECT D","OBJECT_ID":"2024-173D","EPOCH":"2026-03-09T23:30:29.956896","MEAN_MOTION":15.27005733,"ECCENTRICITY":0.00090093,"INCLINATION":97.3606,"RA_OF_ASC_NODE":149.3901,"ARG_OF_PERICENTER":241.6081,"MEAN_ANOMALY":118.425,"EPHEMERIS_TYPE":0,"CLASSIFICATION_TYPE":"U","NORAD_CAT_ID":61230,"ELEMENT_SET_NO":999,"REV_AT_EPOCH":8130,"BSTAR":0.00072064626,"MEAN_MOTION_DOT":0.00019078,"MEAN_MOTION_DDOT":0}]
